{
  "type": "FeatureCollection",
  "features": [
    {
      "type": "Feature",
      "properties": {
        "norad_id": 59626,
        "name": "LEGION 2",
        "group": "resource",
        "lat": 39.8890961388721,
        "lon": -114.49975084313719,
        "alt_km": 517.3887260603815,
        "timestamp": "2025-12-10T09:57:44.362273+00:00",
        "meta_object_name": "LEGION 2",
        "meta_object_id": "2024-081B",
        "meta_epoch": "2025-12-10T04:35:50.906688",
        "meta_mean_motion": 15.16450576,
        "meta_eccentricity": 0.0005794,
        "meta_inclination": 97.5213,
        "meta_ra_of_asc_node": 58.9386,
        "meta_arg_of_pericenter": 304.6638,
        "meta_mean_anomaly": 55.4048,
        "meta_ephemeris_type": 0,
        "meta_classification_type": "U",
        "meta_norad_cat_id": 59626,
        "meta_element_set_no": 999,
        "meta_rev_at_epoch": 8889,
        "meta_bstar": 0.00034996,
        "meta_mean_motion_dot": 6.744e-05,
        "meta_mean_motion_ddot": 0,
        "tle_line1": "1 59626U 24081B   25344.19156142  .00006744  00000+0  34996-3 0  9994",
        "tle_line2": "2 59626  97.5213  58.9386 0005794 304.6638  55.4048 15.16450576 88890"
      },
      "geometry": {
        "type": "Point",
        "coordinates": [
          -114.49975084313719,
          39.8890961388721
        ]
      }
    },
    {
      "type": "Feature",
      "properties": {
        "norad_id": 60182,
        "name": "ALOS-4 (DAICHI-4)",
        "group": "resource",
        "lat": 72.23465135078733,
        "lon": -74.9428190136578,
        "alt_km": 623.0248797178119,
        "timestamp": "2025-12-10T09:57:44.362299+00:00",
        "meta_object_name": "ALOS-4 (DAICHI-4)",
        "meta_object_id": "2024-123A",
        "meta_epoch": "2025-12-10T04:36:56.937024",
        "meta_mean_motion": 14.7947331,
        "meta_eccentricity": 0.0001445,
        "meta_inclination": 97.9225,
        "meta_ra_of_asc_node": 79.0757,
        "meta_arg_of_pericenter": 101.5606,
        "meta_mean_anomaly": 258.5768,
        "meta_ephemeris_type": 0,
        "meta_classification_type": "U",
        "meta_norad_cat_id": 60182,
        "meta_element_set_no": 999,
        "meta_rev_at_epoch": 7793,
        "meta_bstar": 0.00035532,
        "meta_mean_motion_dot": 2.603e-05,
        "meta_mean_motion_ddot": 0,
        "tle_line1": "1 60182U 24123A   25344.19232566  .00002603  00000+0  35532-3 0  9992",
        "tle_line2": "2 60182  97.9225  79.0757 0001445 101.5606 258.5768 14.79473310 77937"
      },
      "geometry": {
        "type": "Point",
        "coordinates": [
          -74.9428190136578,
          72.23465135078733
        ]
      }
    },
    {
      "type": "Feature",
      "properties": {
        "norad_id": 60452,
        "name": "LEGION 3",
        "group": "resource",
        "lat": 5.025979159034196,
        "lon": 137.54467327892914,
        "alt_km": 508.3439209328899,
        "timestamp": "2025-12-10T09:57:44.362312+00:00",
        "meta_object_name": "LEGION 3",
        "meta_object_id": "2024-146A",
        "meta_epoch": "2025-12-09T18:58:02.770176",
        "meta_mean_motion": 15.15713129,
        "meta_eccentricity": 0.0014553,
        "meta_inclination": 45.0025,
        "meta_ra_of_asc_node": 325.9439,
        "meta_arg_of_pericenter": 182.7334,
        "meta_mean_anomaly": 177.3467,
        "meta_ephemeris_type": 0,
        "meta_classification_type": "U",
        "meta_norad_cat_id": 60452,
        "meta_element_set_no": 999,
        "meta_rev_at_epoch": 7328,
        "meta_bstar": 0.00043671,
        "meta_mean_motion_dot": 8.226e-05,
        "meta_mean_motion_ddot": 0,
        "tle_line1": "1 60452U 24146A   25343.79030984  .00008226  00000+0  43671-3 0  9992",
        "tle_line2": "2 60452  45.0025 325.9439 0014553 182.7334 177.3467 15.15713129 73286"
      },
      "geometry": {
        "type": "Point",
        "coordinates": [
          137.54467327892914,
          5.025979159034196
        ]
      }
    },
    {
      "type": "Feature",
      "properties": {
        "norad_id": 60453,
        "name": "LEGION 4",
        "group": "resource",
        "lat": 7.665589188178647,
        "lon": -133.39353219530716,
        "alt_km": 521.8896017767347,
        "timestamp": "2025-12-10T09:57:44.362323+00:00",
        "meta_object_name": "LEGION 4",
        "meta_object_id": "2024-146B",
        "meta_epoch": "2025-12-09T15:49:13.717056",
        "meta_mean_motion": 15.15774012,
        "meta_eccentricity": 0.0009746,
        "meta_inclination": 45.0385,
        "meta_ra_of_asc_node": 58.3883,
        "meta_arg_of_pericenter": 295.1374,
        "meta_mean_anomaly": 64.8494,
        "meta_ephemeris_type": 0,
        "meta_classification_type": "U",
        "meta_norad_cat_id": 60453,
        "meta_element_set_no": 999,
        "meta_rev_at_epoch": 7211,
        "meta_bstar": 0.00042107,
        "meta_mean_motion_dot": 7.925e-05,
        "meta_mean_motion_ddot": 0,
        "tle_line1": "1 60453U 24146B   25343.65918654  .00007925  00000+0  42107-3 0  9995",
        "tle_line2": "2 60453  45.0385  58.3883 0009746 295.1374  64.8494 15.15774012 72116"
      },
      "geometry": {
        "type": "Point",
        "coordinates": [
          -133.39353219530716,
          7.665589188178647
        ]
      }
    },
    {
      "type": "Feature",
      "properties": {
        "norad_id": 60989,
        "name": "SENTINEL-2C",
        "group": "resource",
        "lat": -79.39336607540041,
        "lon": 110.55194631073911,
        "alt_km": 797.1921149980026,
        "timestamp": "2025-12-10T09:57:44.362336+00:00",
        "meta_object_name": "SENTINEL-2C",
        "meta_object_id": "2024-157A",
        "meta_epoch": "2025-12-10T03:38:23.778240",
        "meta_mean_motion": 14.30815927,
        "meta_eccentricity": 0.0001201,
        "meta_inclination": 98.5684,
        "meta_ra_of_asc_node": 56.6715,
        "meta_arg_of_pericenter": 98.0371,
        "meta_mean_anomaly": 262.0948,
        "meta_ephemeris_type": 0,
        "meta_classification_type": "U",
        "meta_norad_cat_id": 60989,
        "meta_element_set_no": 999,
        "meta_rev_at_epoch": 6595,
        "meta_bstar": 0.00010601,
        "meta_mean_motion_dot": 2.34e-06,
        "meta_mean_motion_ddot": 0,
        "tle_line1": "1 60989U 24157A   25344.15166410  .00000234  00000+0  10601-3 0  9992",
        "tle_line2": "2 60989  98.5684  56.6715 0001201  98.0371 262.0948 14.30815927 65952"
      },
      "geometry": {
        "type": "Point",
        "coordinates": [
          110.55194631073911,
          -79.39336607540041
        ]
      }
    },
    {
      "type": "Feature",
      "properties": {
        "norad_id": 61735,
        "name": "IONOSFERA-M 1",
        "group": "resource",
        "lat": -68.589054871136,
        "lon": 11.178855644889833,
        "alt_km": 823.9709361762671,
        "timestamp": "2025-12-10T09:57:44.362347+00:00",
        "meta_object_name": "IONOSFERA-M 1",
        "meta_object_id": "2024-199A",
        "meta_epoch": "2025-12-10T03:43:31.933344",
        "meta_mean_motion": 14.22713167,
        "meta_eccentricity": 0.0001081,
        "meta_inclination": 98.7412,
        "meta_ra_of_asc_node": 214.0233,
        "meta_arg_of_pericenter": 25.3742,
        "meta_mean_anomaly": 334.7489,
        "meta_ephemeris_type": 0,
        "meta_classification_type": "U",
        "meta_norad_cat_id": 61735,
        "meta_element_set_no": 999,
        "meta_rev_at_epoch": 10082,
        "meta_bstar": 7.6651e-05,
        "meta_mean_motion_dot": 1.27e-06,
        "meta_mean_motion_ddot": 0,
        "tle_line1": "1 61735U 24199A   25344.15523071  .00000127  00000+0  76651-4 0  9997",
        "tle_line2": "2 61735  98.7412 214.0233 0001081  25.3742 334.7489 14.22713167100826"
      },
      "geometry": {
        "type": "Point",
        "coordinates": [
          11.178855644889833,
          -68.589054871136
        ]
      }
    },
    {
      "type": "Feature",
      "properties": {
        "norad_id": 61736,
        "name": "IONOSFERA-M 2",
        "group": "resource",
        "lat": 70.89541028061029,
        "lon": -172.1752049418256,
        "alt_km": 808.4336493704477,
        "timestamp": "2025-12-10T09:57:44.362358+00:00",
        "meta_object_name": "IONOSFERA-M 2",
        "meta_object_id": "2024-199B",
        "meta_epoch": "2025-12-10T04:33:25.670016",
        "meta_mean_motion": 14.22715345,
        "meta_eccentricity": 0.0001585,
        "meta_inclination": 98.7403,
        "meta_ra_of_asc_node": 213.9702,
        "meta_arg_of_pericenter": 113.9493,
        "meta_mean_anomaly": 246.1851,
        "meta_ephemeris_type": 0,
        "meta_classification_type": "U",
        "meta_norad_cat_id": 61736,
        "meta_element_set_no": 999,
        "meta_rev_at_epoch": 10395,
        "meta_bstar": 7.2722e-05,
        "meta_mean_motion_dot": 1.19e-06,
        "meta_mean_motion_ddot": 0,
        "tle_line1": "1 61736U 24199B   25344.18988044  .00000119  00000+0  72722-4 0  9992",
        "tle_line2": "2 61736  98.7403 213.9702 0001585 113.9493 246.1851 14.22715345103958"
      },
      "geometry": {
        "type": "Point",
        "coordinates": [
          -172.1752049418256,
          70.89541028061029
        ]
      }
    }
  ]
}